satname,norad_id,inclination_deg,eccentricity,mean_motion_rev_per_day,perigee_km,apogee_km,l1,l2
STARLINK-1297,45395,53.0519,0.0002823,15.47749948,421.3898117675626,425.2299086648409,1 45395U 20019AM  26035.82276615  .00086498  00000+0  16324-2 0  9993,2 45395  53.0519 288.6095 0002823 117.0061 243.1235 15.47749948324311
STARLINK-1307,45397,53.0558,0.0001412,15.45791331,428.0927192501258,430.01506995876207,1 45397U 20019AP  26035.12583864  .00024813  00000+0  51123-3 0  9995,2 45397  53.0558 291.4705 0001412 122.8956 237.2186 15.45791331324855
STARLINK-1255,45399,53.0439,0.0007664,15.45650393,424.25034295817477,434.6850394288358,1 45399U 20019AR  26035.84218697  .00085553  00000+0  17345-2 0  9990,2 45399  53.0439 260.0791 0007664 128.9949 231.1740 15.45650393325342
STARLINK-1260,45404,53.1538,0.0001202,15.29346247,476.94132832506875,478.5894872639019,1 45404U 20019AW  26035.84372522 -.00004489  00000+0 -14336-3 0  9994,2 45404  53.1538 281.7990 0001202  95.5703 264.5435 15.29346247324948
STARLINK-1263,45405,53.1535,0.0001349,15.2936018,476.79891235279956,478.6486235879984,1 45405U 20019AX  26035.83083098  .00001101  00000+0  50477-4 0  9994,2 45405  53.1535 281.8735 0001349  92.0974 268.0181 15.29360180324947
STARLINK-1265,45406,53.1548,0.0001223,15.29378638,476.83014078964334,478.5070708408248,1 45406U 20019AY  26035.84512422  .00004767  00000+0  17732-3 0  9991,2 45406  53.1548 281.8788 0001223  88.9941 271.1200 15.29378638324943
STARLINK-1278,45408,53.049,0.0005456,15.49214797,415.3132813950997,422.7303410899267,1 45408U 20019BA  26035.43353354  .00106846  00000+0  19083-2 0  9996,2 45408  53.0490 290.5682 0005456  88.4211 271.7421 15.49214797324798
STARLINK-1296,45412,53.1567,0.0001326,15.30104243,474.59220507328973,476.40978987021936,1 45412U 20019BE  26035.84123432  .00268819  00000+0  87908-2 0  9998,2 45412  53.1567 281.8224 0001326  63.7264 296.3873 15.30104243324945
STARLINK-1298,45413,53.0406,0.0005759,15.79944283,326.7347929122452,334.46191429252394,1 45413U 20019BF  26035.91670139  .00292775  00000+0  14984-2 0  9990,2 45413  53.0406 220.2593 0005759 194.8382   5.9817 15.79944283  5918
STARLINK-1309,45414,53.069,0.0001251,15.4415413,433.0124468222584,434.7168096296409,1 45414U 20019BG  26035.91670139  .01416260  00000+0  27627-1 0  9996,2 45414  53.0690 281.1295 0001251  96.6245 346.9415 15.44154130  5849
STARLINK-1316,45415,53.1608,0.0001197,15.30184831,474.44001002905406,476.0807133574426,1 45415U 20019BH  26035.82123125 -.00001568  00000+0 -40837-4 0  9998,2 45415  53.1608 281.9755 0001197  88.3752 271.7386 15.30184831324964
STARLINK-1318,45416,53.037,0.0004769,15.88519589,303.24486137380245,309.6206039848321,1 45416U 20019BJ  26035.91670139  .00413815  00000+0  13882-2 0  9999,2 45416  53.0370 206.8005 0004769 255.1617 317.9253 15.88519589  5839
STARLINK-1286,45417,53.0502,0.0002215,15.48399776,419.9006869313216,422.9128848284663,1 45417U 20019BK  26035.84204714  .00034671  00000+0  64888-3 0  9996,2 45417  53.0502 288.2452 0002215  72.5787 287.5462 15.48399776325132
STARLINK-1308,45419,53.0561,0.0002133,15.42328617,437.7845834439304,440.69287593021363,1 45419U 20019BM  26035.13873411  .00020523  00000+0  47707-3 0  9998,2 45419  53.0561 312.2026 0002133 103.6642 256.4601 15.42328617324486
STARLINK-1329,45531,53.0532,0.0007784,15.49245135,413.642234970368,424.22391366206284,1 45531U 20025A   26035.81608687  .00114141  00000+0  20329-2 0  9996,2 45531  53.0532 239.7499 0007784 136.6317 223.5304 15.49245135320344
STARLINK-1338,45532,53.0525,0.000561,15.47971324,418.84614509831135,426.4766408952537,1 45532U 20025B   26035.85002307  .00118638  00000+0  22087-2 0  9996,2 45532  53.0525 242.6611 0005610 150.4133 209.7192 15.47971324320303
STARLINK-1350,45535,53.0733,0.0001405,15.35185675,459.4082344083763,461.3298546068836,1 45535U 20025E   26035.66373607  .00014190  00000+0  41975-3 0  9998,2 45535  53.0733 188.1371 0001405 112.6350 247.4800 15.35185675321087
STARLINK-1362,45538,53.1221,0.0001873,15.22013382,498.48010335830986,501.0565666968105,1 45538U 20025H   26035.91670139  .00979061  00000+0  38971-1 0  9996,2 45538  53.1221 253.0278 0001873  90.0904 285.7082 15.22013382  5586
STARLINK-1368,45540,53.1114,0.0001767,15.20174026,504.0989231713929,506.531535189185,1 45540U 20025K   26035.91670139  .00072012  00000+0  32675-2 0  9995,2 45540  53.1114 253.1833 0001767  72.8811 347.2831 15.20174026  5784
STARLINK-1371,45542,53.0508,0.0004255,15.42652773,435.3832905920508,441.1840645886796,1 45542U 20025M   26035.81252654  .00092280  00000+0  20696-2 0  9993,2 45542  53.0508 245.8901 0004255 140.7706 219.3607 15.42652773320255
STARLINK-1372,45543,53.1309,0.0001729,15.23858717,493.0263961644687,495.4028553566559,1 45543U 20025N   26035.91670139  .01819961  00000+0  67803-1 0  9991,2 45543  53.1309 253.1745 0001729  81.0864 302.9090 15.23858717  5282
STARLINK-1373,45544,53.0512,0.0003499,15.44283937,431.09950870246394,435.86628030463726,1 45544U 20025P   26035.82664316  .00101368  00000+0  21486-2 0  9994,2 45544  53.0512 246.0894 0003499 171.3837 188.7229 15.44283937320253
STARLINK-1294,45551,53.034,0.0007332,15.86333327,307.66741340785484,317.47867061345823,1 45551U 20025W   26035.91670139  .00282754  00000+0  10719-2 0  9998,2 45551  53.0340 142.6856 0007332 336.8975  29.5442 15.86333327  5939
STARLINK-1327,45555,53.0522,0.0002369,15.47353249,422.86074222758634,426.0838185046241,1 45555U 20025AA  26035.71820152  .00131728  00000+0  25014-2 0  9990,2 45555  53.0522 225.0049 0002369 186.1026 173.9952 15.47353249320531
STARLINK-1356,45564,53.0526,0.0001141,15.40188121,444.77504077986305,446.3322069802325,1 45564U 20025AK  26035.82292346  .00094039  00000+0  22887-2 0  9998,2 45564  53.0526 229.8519 0001141 168.0248 192.0783 15.40188121320476
STARLINK-1357,45565,53.0555,0.0002371,15.48731351,418.8243125128838,422.0481959500412,1 45565U 20025AL  26035.91670139  .00206474  00000+0  36969-2 0  9993,2 45565  53.0555 195.7515 0002371 170.0681  65.9727 15.48731351  5693
STARLINK-1361,45567,53.0532,8.03e-05,15.40904315,442.8913073309068,443.9868524493377,1 45567U 20025AN  26035.91670139  .00132521  00000+0  31301-2 0  9991,2 45567  53.0532 229.8783 0000803 149.9373  33.5977 15.40904315  5846
STARLINK-1363,45568,53.0463,0.0003092,15.67645904,363.5547073190928,367.72505894362166,1 45568U 20025AP  26035.91670139  .00211161  00000+0  18539-2 0  9998,2 45568  53.0463 200.3999 0003092 318.1875 109.2789 15.67645904  5985
STARLINK-1366,45569,53.0469,0.0002905,15.67387898,364.4206378003955,368.3392021308946,1 45569U 20025AQ  26035.91670139  .00204995  00000+0  18202-2 0  9993,2 45569  53.0469 201.0466 0002905 307.0720  96.7944 15.67387898  5974
STARLINK-1376,45570,53.1602,0.0001059,15.29358443,477.0029228866824,478.4549952968182,1 45570U 20025AR  26035.71723104  .00001077  00000+0  49657-4 0  9990,2 45570  53.1602 230.7593 0001059  91.5446 268.5675 15.29358443320450
STARLINK-1320,45572,53.0517,0.0005963,15.61412816,379.543185542193,387.6072035053812,1 45572U 20025AT  26035.54227053  .00107185  00000+0  12222-2 0  9998,2 45572  53.0517 148.4819 0005963 284.0292  76.0057 15.61412816321614
STARLINK-1321,45573,53.0515,0.0002691,15.42301992,437.48261215320326,441.1517659977635,1 45573U 20025AU  26035.91670139  .00167389  00000+0  37544-2 0  9993,2 45573  53.0515 214.6779 0002691 150.5752 262.7333 15.42301992  5876
STARLINK-1331,45578,53.072,0.0001538,15.38311619,450.0513900788437,452.15206391126776,1 45578U 20025AZ  26035.91670139  .01184790  00000+0  28073-1 0  9990,2 45578  53.0720 221.3191 0001538  85.4571 296.1778 15.38311619  5434
STARLINK-1333,45580,53.159,9.7e-05,15.30181192,474.60644669431895,475.93600789041375,1 45580U 20025BB  26035.84002473 -.00001662  00000+0 -44041-4 0  9998,2 45580  53.1590 230.3901 0000970 110.6648 249.4457 15.30181192320479
STARLINK-1335,45581,53.0555,0.0001592,15.06389159,546.1422634610999,548.3473050212015,1 45581U 20025BC  26035.82176655  .00000837  00000+0  75101-4 0  9993,2 45581  53.0555 224.1684 0001592  94.4457 265.6714 15.06389159320558
STARLINK-1337,45582,53.0554,0.0001095,15.48844446,419.3608928706599,420.849707934447,1 45582U 20025BD  26035.91670139  .01289742  00000+0  21277-1 0  9997,2 45582  53.0554 220.2186 0001095  80.7459 321.8019 15.48844446  5688
STARLINK-1347,45586,53.0491,0.0003004,15.47374474,422.3665884724023,426.45355875422956,1 45586U 20025BH  26035.91670139  .00124051  00000+0  23566-2 0  9995,2 45586  53.0491 186.9533 0003004 229.7411 338.1120 15.47374474  5953
STARLINK-1364,45589,53.0531,0.0001179,15.43549468,434.8401659810015,436.4468554254263,1 45589U 20025BL  26035.91670139  .00156626  00000+0  33743-2 0  9999,2 45589  53.0531 219.6526 0001179 248.3511  64.7057 15.43549468  5781
STARLINK-1365,45590,53.0524,0.0001323,15.42287438,438.4581233517956,440.2620330786913,1 45590U 20025BM  26035.83937715  .00008225  00000+0  19742-3 0  9993,2 45590  53.0524 249.6196 0001323 140.0072 220.1030 15.42287438320214
STARLINK-1443,45660,53.0574,0.0001276,15.06382361,546.3819380860759,548.1493008345615,1 45660U 20035D   26035.78214163  .00003505  00000+0  25422-3 0  9999,2 45660  53.0574 214.3463 0001276  92.2282 267.8853 15.06382361313776
STARLINK-1446,45663,53.0247,0.0003561,15.41382955,439.59816044350464,444.4554811166645,1 45663U 20035G   26035.62935611  .00024458  00000+0  58444-3 0  9993,2 45663  53.0247 156.2385 0003561 153.3703 206.7484 15.41382955314578
STARLINK-1448,45665,53.0541,0.0001636,15.45596977,428.5107882092434,430.7382877844757,1 45665U 20035J   26035.91670139  .00173632  00000+0  34809-2 0  9995,2 45665  53.0541 209.7365 0001636 349.0148 254.2378 15.45596977  5771
STARLINK-1451,45668,53.0526,0.0003024,15.08215002,539.5618725681989,543.7469624174983,1 45668U 20035M   26035.70063005  .00024037  00000+0  15491-2 0  9993,2 45668  53.0526 214.7943 0003024 145.2079 214.9109 15.08215002313769
